H-2A R/B                
1 28932U 06002B   26196.46024219  .00005015  00000+0  23940-3 0  9995
2 28932  98.2591 354.8589 0050814 165.1390 195.1349 15.18447770113815
RESURS-DK 1             
1 29228U 06021A   26196.52482071  .00000919  00000+0  57571-4 0  9992
2 29228  69.9307 266.1925 0007128 270.7395  89.2954 15.13319759106863
CZ-4B R/B               
1 29507U 06046C   26196.13835589  .00002419  00000+0  12090-3 0  9995
2 29507  97.5438 240.6597 0032593 182.3092 177.7997 15.17980988 79370
CZ-2C R/B               
1 31114U 07010B   26196.30973327  .00000028  00000+0  31924-4 0  9998
2 31114  98.4119 303.2882 0057780 283.4262  76.0480 14.20281788997836
COSMO-SKYMED 1          
1 31598U 07023A   26196.60636766  .00001374  00000+0  12398-3 0  9992
2 31598  97.8846  28.7027 0001457 103.0856 257.0528 14.97220334 34041
COSMOS 2428             
1 31792U 07029A   26196.53283664  .00000244  00000+0  15641-3 0  9990
2 31792  70.9381 294.9624 0007203  80.5752 279.6183 14.12934606982154
SL-16 R/B               
1 31793U 07029B   26196.53831066  .00000197  00000+0  12663-3 0  9994
2 31793  70.9745 263.6316 0001953 256.3609 203.2418 14.14851875983456
KORONAS-FOTON           
1 33504U 09003A   26196.36312578  .00007244  00000+0  14583-3 0  9996
2 33504  82.4310 142.8557 0012172  61.9367 298.3111 15.46300081965454
CZ-2C R/B               
1 37731U 11030B   26196.48529932  .00000473  00000+0  65994-4 0  9992
2 37731  97.8670 151.3646 0050815 295.1925 178.8633 14.81532605809017
H-2A R/B                
1 38341U 12025E   26196.52042458  .00000543  00000+0  54082-4 0  9997
2 38341  98.4847 174.0075 0042511 254.0003 105.6531 14.95838163767326
SHIJIAN-16 (SJ-16)      
1 39358U 13057A   26196.59136703  .00001094  00000+0  10868-3 0  9991
2 39358  74.9742 302.8836 0015774 163.7958 196.3738 14.92672444690584
SL-4 R/B                
1 39679U 14021B   26196.63970190  .00005892  00000+0  12494-3 0  9997
2 39679  51.6064  71.3246 0089633 210.1097 149.4718 15.42489108676005
ALOS-2                  
1 39766U 14029A   26196.61260325  .00000619  00000+0  89767-4 0  9992
2 39766  97.9234 293.3699 0001582  91.0636 269.0757 14.79467278655781
YAOGAN-29               
1 41038U 15069A   26196.58165598  .00000866  00000+0  11291-3 0  9994
2 41038  98.0017 225.2579 0000698  15.3096 344.8139 14.83109119574838
ASTRO-H (HITOMI)        
1 41337U 16012A   26196.44764294  .00001273  00000+0  69424-4 0  9993
2 41337  30.9981 251.6570 0009649 177.8511 182.2170 15.10633098571565
HXMT (HUIYAN)           
1 42758U 17034A   26196.61454986  .00002188  00000+0  11383-3 0  9995
2 42758  43.0155  24.7238 0032247 323.3695  36.4949 15.18690651501981
SAOCOM 1A               
1 43641U 18076A   26196.62549811  .00000592  00000+0  80892-4 0  9996
2 43641  97.8880  22.9607 0001480  86.9719 273.1664 14.82149458420314
H-2A R/B                
1 43682U 18084L   26196.61206577  .00013223  00000+0  26930-3 0  9995
2 43682  98.8530  81.7337 0020535 299.0779  60.8408 15.46212820425519
SAOCOM 1B               
1 46265U 20059A   26196.58918867 -.00000344  00000+0 -36595-4 0  9999
2 46265  97.8884  22.0210 0001493  81.3813 278.7570 14.82156541317696
CSS (TIANHE)            
1 48274U 21035A   26196.53543323  .00001219  00000+0  20014-4 0  9991
2 48274  41.4690 149.7716 0002228 300.3824  59.6794 15.58093729297591
COSMOS 2550             
1 48865U 21056A   26196.65049784  .00002760  00000+0  89675-4 0  9995
2 48865  67.1435  13.8058 0008507 270.2473  89.7707 15.33830464283085
CZ-2C R/B               
1 52794U 22058K   26196.50200512  .00027038  00000+0  28016-3 0  9992
2 52794  50.1855  15.9607 0030134  23.9117 336.3250 15.63873458230079
CZ-2C R/B               
1 54039U 22132E   26196.51976684  .00050416  00000+0  33848-3 0  9995
2 54039  97.2891 204.8829 0009324 340.4790  19.6117 15.75021731210401
GSLV R/B                
1 54149U 22138AN  26196.32047644  .00001294  00000+0  10826-3 0  9998
2 54149  87.3818 123.5374 0023530  51.7886 308.5460 14.97382789203024
XRISM                   
1 57800U 23137A   26196.36830794  .00001997  00000+0  10585-3 0  9997
2 57800  31.0008 177.0225 0007841 248.1772 111.8032 15.12669567157130
ACS3                    
1 59588U 24077B   26196.32599719  .00004361  00000+0  30372-2 0  9994
2 59588  97.1739 108.8789 0125757  36.5333 324.4331 13.95282262111962
SPACEMOBILE-003         
1 61045U 24163A   26196.47623733  .00001018  00000+0  60383-4 0  9994
2 61045  52.9668 179.3513 0004625 194.3949 165.6914 15.20706022102076
SPACEMOBILE-005         
1 61046U 24163B   26196.39395759  .00002259  00000+0  11604-3 0  9999
2 61046  52.9762 179.6783 0008703 196.2999 163.7716 15.20721288102059
SPACEMOBILE-001         
1 61047U 24163C   26196.39230189  .00000276  00000+0  27082-4 0  9990
2 61047  52.9733 179.3964 0007205 194.1158 165.9636 15.20741724102058
SPACEMOBILE-002         
1 61048U 24163D   26196.37616552  .00003670  00000+0  17898-3 0  9995
2 61048  52.9778 179.5102 0006025 192.7695 167.3147 15.20785739102050
